ONEWEB-0181             
1 48230U 21031W   25218.88070996 -.00000203  00000+0 -58129-3 0  9993
2 48230  87.9078 352.2989 0001669  94.2195 265.9125 13.14502420206941
ONEWEB-0188             
1 48231U 21031X   25218.91877408  .00000040  00000+0  73385-4 0  9990
2 48231  87.9078 352.2821 0001774  99.2584 260.8747 13.14503768206851
ONEWEB-0220             
1 48232U 21031Y   25218.88231483  .00000057  00000+0  12010-3 0  9999
2 48232  87.9069 352.2294 0001627 103.6424 256.4887 13.14503391207114
ONEWEB-0165             
1 48233U 21031Z   25218.91085391  .00000048  00000+0  95902-4 0  9991
2 48233  87.9071 352.2678 0001572 100.3637 259.7670 13.14502517207073
ONEWEB-0199             
1 48234U 21031AA  25218.89498470  .00000158  00000+0  39066-3 0  9995
2 48234  87.9075 352.2342 0001987  97.2200 262.9156 13.14504500206973
ONEWEB-0203             
1 48235U 21031AB  25218.88548606  .00000050  00000+0  99192-4 0  9990
2 48235  87.9068 352.2390 0001855  89.6462 270.4880 13.14502233206988
ONEWEB-0197             
1 48236U 21031AC  25218.93702621 -.00000259  00000+0 -73361-3 0  9998
2 48236  87.9064 352.2281 0001901 107.4819 252.6519 13.14502986206909
ONEWEB-0194             
1 48237U 21031AD  25218.83948955  .00000019  00000+0  16400-4 0  9994
2 48237  87.9081 352.2571 0002020  93.4475 266.6886 13.14504020207067
ONEWEB-0193             
1 48238U 21031AE  25218.93146010 -.00000436  00000+0 -12094-2 0  9996
2 48238  87.9070 352.2446 0001792  92.4993 267.6342 13.14502816207021
ONEWEB-0191             
1 48239U 21031AF  25218.86644825 -.00000148  00000+0 -43365-3 0  9992
2 48239  87.9073 352.2303 0001903  89.3158 270.8190 13.14504338206879
ONEWEB-0195             
1 48240U 21031AG  25218.91957578 -.00000079  00000+0 -24694-3 0  9999
2 48240  87.9077 352.2174 0001457  90.3747 269.7550 13.14501844206866
ONEWEB-0201             
1 48241U 21031AH  25218.90783086  .00000183  00000+0  46017-3 0  9997
2 48241  87.9080 352.2678 0001580 105.9873 254.1431 13.14502174207099
ONEWEB-0207             
1 48242U 21031AJ  25218.88786422  .00000157  00000+0  38770-3 0  9990
2 48242  87.9075 352.2315 0001744 105.1735 254.9588 13.14503330207000
ONEWEB-0208             
1 48243U 21031AK  25218.86961009 -.00000148  00000+0 -43384-3 0  9994
2 48243  87.9075 352.2499 0001677  94.2773 265.8548 13.14501283207012
ONEWEB-0200             
1 48244U 21031AL  25218.90925960  .00000161  00000+0  39984-3 0  9990
2 48244  87.9076 352.2335 0001732  96.3717 263.7610 13.14500865206949
ONEWEB-0217             
1 48245U 21031AM  25218.92512116 -.00000108  00000+0 -32643-3 0  9996
2 48245  87.9076 352.2147 0001588  90.6768 269.4544 13.14501966206899
