[{"OBJECT_NAME":"ONEWEB-0181","OBJECT_ID":"2021-031W","EPOCH":"2025-08-06T21:08:13.340544","MEAN_MOTION":13.1450242,"ECCENTRICITY":0.00016695,"INCLINATION":87.9078,"RA_OF_ASC_NODE":352.2989,"ARG_OF_PERICENTER":94.2195,"MEAN_ANOMALY":265.9125,"EPHEMERIS_TYPE":0,"CLASSIFICATION_TYPE":"U","NORAD_CAT_ID":48230,"ELEMENT_SET_NO":999,"REV_AT_EPOCH":20694,"BSTAR":-0.00058129175,"MEAN_MOTION_DOT":-2.03e-6,"MEAN_MOTION_DDOT":0},{"OBJECT_NAME":"ONEWEB-0188","OBJECT_ID":"2021-031X","EPOCH":"2025-08-06T22:03:02.080512","MEAN_MOTION":13.14503768,"ECCENTRICITY":0.00017748,"INCLINATION":87.9078,"RA_OF_ASC_NODE":352.2821,"ARG_OF_PERICENTER":99.2584,"MEAN_ANOMALY":260.8747,"EPHEMERIS_TYPE":0,"CLASSIFICATION_TYPE":"U","NORAD_CAT_ID":48231,"ELEMENT_SET_NO":999,"REV_AT_EPOCH":20685,"BSTAR":7.3384865e-5,"MEAN_MOTION_DOT":4.0e-7,"MEAN_MOTION_DDOT":0},{"OBJECT_NAME":"ONEWEB-0220","OBJECT_ID":"2021-031Y","EPOCH":"2025-08-06T21:10:32.001312","MEAN_MOTION":13.14503391,"ECCENTRICITY":0.00016278,"INCLINATION":87.9069,"RA_OF_ASC_NODE":352.2294,"ARG_OF_PERICENTER":103.6424,"MEAN_ANOMALY":256.4887,"EPHEMERIS_TYPE":0,"CLASSIFICATION_TYPE":"U","NORAD_CAT_ID":48232,"ELEMENT_SET_NO":999,"REV_AT_EPOCH":20711,"BSTAR":0.00012010033,"MEAN_MOTION_DOT":5.7e-7,"MEAN_MOTION_DDOT":0},{"OBJECT_NAME":"ONEWEB-0165","OBJECT_ID":"2021-031Z","EPOCH":"2025-08-06T21:51:37.777824","MEAN_MOTION":13.14502517,"ECCENTRICITY":0.00015729,"INCLINATION":87.9071,"RA_OF_ASC_NODE":352.2678,"ARG_OF_PERICENTER":100.3637,"MEAN_ANOMALY":259.767,"EPHEMERIS_TYPE":0,"CLASSIFICATION_TYPE":"U","NORAD_CAT_ID":48233,"ELEMENT_SET_NO":999,"REV_AT_EPOCH":20707,"BSTAR":9.5902452e-5,"MEAN_MOTION_DOT":4.8e-7,"MEAN_MOTION_DDOT":0},{"OBJECT_NAME":"ONEWEB-0199","OBJECT_ID":"2021-031AA","EPOCH":"2025-08-06T21:28:46.678080","MEAN_MOTION":13.145045,"ECCENTRICITY":0.00019871,"INCLINATION":87.9075,"RA_OF_ASC_NODE":352.2342,"ARG_OF_PERICENTER":97.22,"MEAN_ANOMALY":262.9156,"EPHEMERIS_TYPE":0,"CLASSIFICATION_TYPE":"U","NORAD_CAT_ID":48234,"ELEMENT_SET_NO":999,"REV_AT_EPOCH":20697,"BSTAR":0.00039065917,"MEAN_MOTION_DOT":1.58e-6,"MEAN_MOTION_DDOT":0},{"OBJECT_NAME":"ONEWEB-0203","OBJECT_ID":"2021-031AB","EPOCH":"2025-08-06T21:15:05.995584","MEAN_MOTION":13.14502233,"ECCENTRICITY":0.00018553,"INCLINATION":87.9068,"RA_OF_ASC_NODE":352.239,"ARG_OF_PERICENTER":89.6462,"MEAN_ANOMALY":270.488,"EPHEMERIS_TYPE":0,"CLASSIFICATION_TYPE":"U","NORAD_CAT_ID":48235,"ELEMENT_SET_NO":999,"REV_AT_EPOCH":20698,"BSTAR":9.9192319e-5,"MEAN_MOTION_DOT":5.0e-7,"MEAN_MOTION_DDOT":0},{"OBJECT_NAME":"ONEWEB-0197","OBJECT_ID":"2021-031AC","EPOCH":"2025-08-06T22:29:19.064544","MEAN_MOTION":13.14502986,"ECCENTRICITY":0.0001901,"INCLINATION":87.9064,"RA_OF_ASC_NODE":352.2281,"ARG_OF_PERICENTER":107.4819,"MEAN_ANOMALY":252.6519,"EPHEMERIS_TYPE":0,"CLASSIFICATION_TYPE":"U","NORAD_CAT_ID":48236,"ELEMENT_SET_NO":999,"REV_AT_EPOCH":20690,"BSTAR":-0.00073361227,"MEAN_MOTION_DOT":-2.59e-6,"MEAN_MOTION_DDOT":0},{"OBJECT_NAME":"ONEWEB-0194","OBJECT_ID":"2021-031AD","EPOCH":"2025-08-06T20:08:51.897120","MEAN_MOTION":13.1450402,"ECCENTRICITY":0.00020204,"INCLINATION":87.9081,"RA_OF_ASC_NODE":352.2571,"ARG_OF_PERICENTER":93.4475,"MEAN_ANOMALY":266.6886,"EPHEMERIS_TYPE":0,"CLASSIFICATION_TYPE":"U","NORAD_CAT_ID":48237,"ELEMENT_SET_NO":999,"REV_AT_EPOCH":20706,"BSTAR":1.640038e-5,"MEAN_MOTION_DOT":1.9e-7,"MEAN_MOTION_DDOT":0},{"OBJECT_NAME":"ONEWEB-0193","OBJECT_ID":"2021-031AE","EPOCH":"2025-08-06T22:21:18.152640","MEAN_MOTION":13.14502816,"ECCENTRICITY":0.00017923,"INCLINATION":87.907,"RA_OF_ASC_NODE":352.2446,"ARG_OF_PERICENTER":92.4993,"MEAN_ANOMALY":267.6342,"EPHEMERIS_TYPE":0,"CLASSIFICATION_TYPE":"U","NORAD_CAT_ID":48238,"ELEMENT_SET_NO":999,"REV_AT_EPOCH":20702,"BSTAR":-0.0012093745,"MEAN_MOTION_DOT":-4.36e-6,"MEAN_MOTION_DDOT":0},{"OBJECT_NAME":"ONEWEB-0191","OBJECT_ID":"2021-031AF","EPOCH":"2025-08-06T20:47:41.128800","MEAN_MOTION":13.14504338,"ECCENTRICITY":0.0001903,"INCLINATION":87.9073,"RA_OF_ASC_NODE":352.2303,"ARG_OF_PERICENTER":89.3158,"MEAN_ANOMALY":270.819,"EPHEMERIS_TYPE":0,"CLASSIFICATION_TYPE":"U","NORAD_CAT_ID":48239,"ELEMENT_SET_NO":999,"REV_AT_EPOCH":20687,"BSTAR":-0.00043364565,"MEAN_MOTION_DOT":-1.48e-6,"MEAN_MOTION_DDOT":0},{"OBJECT_NAME":"ONEWEB-0195","OBJECT_ID":"2021-031AG","EPOCH":"2025-08-06T22:04:11.347392","MEAN_MOTION":13.14501844,"ECCENTRICITY":0.00014579,"INCLINATION":87.9077,"RA_OF_ASC_NODE":352.2174,"ARG_OF_PERICENTER":90.3747,"MEAN_ANOMALY":269.755,"EPHEMERIS_TYPE":0,"CLASSIFICATION_TYPE":"U","NORAD_CAT_ID":48240,"ELEMENT_SET_NO":999,"REV_AT_EPOCH":20686,"BSTAR":-0.00024694483,"MEAN_MOTION_DOT":-7.9e-7,"MEAN_MOTION_DDOT":0},{"OBJECT_NAME":"ONEWEB-0201","OBJECT_ID":"2021-031AH","EPOCH":"2025-08-06T21:47:16.586304","MEAN_MOTION":13.14502174,"ECCENTRICITY":0.00015803,"INCLINATION":87.908,"RA_OF_ASC_NODE":352.2678,"ARG_OF_PERICENTER":105.9873,"MEAN_ANOMALY":254.1431,"EPHEMERIS_TYPE":0,"CLASSIFICATION_TYPE":"U","NORAD_CAT_ID":48241,"ELEMENT_SET_NO":999,"REV_AT_EPOCH":20709,"BSTAR":0.00046017432,"MEAN_MOTION_DOT":1.83e-6,"MEAN_MOTION_DDOT":0},{"OBJECT_NAME":"ONEWEB-0207","OBJECT_ID":"2021-031AJ","EPOCH":"2025-08-06T21:18:31.468608","MEAN_MOTION":13.1450333,"ECCENTRICITY":0.00017443,"INCLINATION":87.9075,"RA_OF_ASC_NODE":352.2315,"ARG_OF_PERICENTER":105.1735,"MEAN_ANOMALY":254.9588,"EPHEMERIS_TYPE":0,"CLASSIFICATION_TYPE":"U","NORAD_CAT_ID":48242,"ELEMENT_SET_NO":999,"REV_AT_EPOCH":20700,"BSTAR":0.00038769996,"MEAN_MOTION_DOT":1.57e-6,"MEAN_MOTION_DDOT":0},{"OBJECT_NAME":"ONEWEB-0208","OBJECT_ID":"2021-031AK","EPOCH":"2025-08-06T20:52:14.311776","MEAN_MOTION":13.14501283,"ECCENTRICITY":0.00016776,"INCLINATION":87.9075,"RA_OF_ASC_NODE":352.2499,"ARG_OF_PERICENTER":94.2773,"MEAN_ANOMALY":265.8548,"EPHEMERIS_TYPE":0,"CLASSIFICATION_TYPE":"U","NORAD_CAT_ID":48243,"ELEMENT_SET_NO":999,"REV_AT_EPOCH":20701,"BSTAR":-0.00043383814,"MEAN_MOTION_DOT":-1.48e-6,"MEAN_MOTION_DDOT":0},{"OBJECT_NAME":"ONEWEB-0200","OBJECT_ID":"2021-031AL","EPOCH":"2025-08-06T21:49:20.029440","MEAN_MOTION":13.14500865,"ECCENTRICITY":0.00017323,"INCLINATION":87.9076,"RA_OF_ASC_NODE":352.2335,"ARG_OF_PERICENTER":96.3717,"MEAN_ANOMALY":263.761,"EPHEMERIS_TYPE":0,"CLASSIFICATION_TYPE":"U","NORAD_CAT_ID":48244,"ELEMENT_SET_NO":999,"REV_AT_EPOCH":20694,"BSTAR":0.00039983766,"MEAN_MOTION_DOT":1.61e-6,"MEAN_MOTION_DDOT":0},{"OBJECT_NAME":"ONEWEB-0217","OBJECT_ID":"2021-031AM","EPOCH":"2025-08-06T22:12:10.468224","MEAN_MOTION":13.14501966,"ECCENTRICITY":0.00015889,"INCLINATION":87.9076,"RA_OF_ASC_NODE":352.2147,"ARG_OF_PERICENTER":90.6768,"MEAN_ANOMALY":269.4544,"EPHEMERIS_TYPE":0,"CLASSIFICATION_TYPE":"U","NORAD_CAT_ID":48245,"ELEMENT_SET_NO":999,"REV_AT_EPOCH":20689,"BSTAR":-0.00032642523,"MEAN_MOTION_DOT":-1.08e-6,"MEAN_MOTION_DDOT":0}]
